STARLINK-36532          
1 67628U 26020M   26048.05673465  .00221785  00000+0  10259-2 0  9998
2 67628  42.9964 267.2137 0001715 253.2792 106.7891 15.82081240  2833
STARLINK-36367          
1 67629U 26020N   26048.58335648  .00173615  00000+0  10521-2 0  9995
2 67629  42.9986 264.1091 0001958 282.8070 151.3969 15.76265469  4158
STARLINK-36416          
1 67630U 26020P   26047.95204034  .00382597  00000+0  22369-2 0  9995
2 67630  42.9962 268.1640 0002082 314.4775  45.5924 15.76479057  2817
STARLINK-36527          
1 67631U 26020Q   26048.62384700  .00643068  00000+0  28007-2 0  9998
2 67631  42.9959 263.7228 0002621 267.2936  92.7635 15.82282657  2920
STARLINK-36633          
1 67632U 26020R   26048.62311035  .00646788  00000+0  28012-2 0  9998
2 67632  42.9961 263.7164 0002796 231.4494 128.6127 15.82393229  2921
STARLINK-36637          
1 67633U 26020S   26048.58344945  .00405646  00000+0  23583-2 0  9994
2 67633  42.9962 264.2955 0001749 243.8756 116.1933 15.76542220  2918
STARLINK-36617          
1 67634U 26020T   26048.05362044  .00086432  00000+0  40830-3 0  9990
2 67634  42.9958 267.1891 0002204 244.0592 116.0052 15.82046557  2834
STARLINK-36627          
1 67635U 26020U   26048.64023805  .00460847  00000+0  26558-2 0  9991
2 67635  42.9965 263.8556 0002715 238.3601 121.7004 15.76588621  2924
STARLINK-36624          
1 67636U 26020V   26047.98867945 -.00413375  00000+0 -20967-2 0  9993
2 67636  42.9970 267.5617 0002600 262.6419  97.4157 15.81586995  2825
STARLINK-36610          
1 67637U 26020W   26048.64243088  .00457100  00000+0  26368-2 0  9997
2 67637  42.9969 263.8738 0003166 255.1809 104.8710 15.76576261  2923
STARLINK-36599          
1 67638U 26020X   26048.04947015  .00251318  00000+0  11571-2 0  9996
2 67638  42.9969 267.1539 0002065 245.8602 114.2054 15.82100528  2836
STARLINK-36595          
1 67639U 26020Y   26048.04868222  .00315148  00000+0  14380-2 0  9992
2 67639  42.9963 267.1482 0002021 289.7349  70.3305 15.82125720  2837
