CCSDS_OMM_VERS = 2.0
CREATION_DATE  = 
ORIGINATOR     = 

OBJECT_NAME    = STARLINK-36532
OBJECT_ID      = 2026-020M
CENTER_NAME    = EARTH
REF_FRAME      = TEME
TIME_SYSTEM    = UTC
MEAN_ELEMENT_THEORY = SGP/SGP4

EPOCH          = 2026-02-17T01:21:41.873760
MEAN_MOTION    = 15.82081240
ECCENTRICITY   = .00017156
INCLINATION    = 42.9964
RA_OF_ASC_NODE = 267.2137
ARG_OF_PERICENTER = 253.2792
MEAN_ANOMALY   = 106.7891

EPHEMERIS_TYPE = 0
CLASSIFICATION_TYPE = U
NORAD_CAT_ID   = 67628
ELEMENT_SET_NO = 999
REV_AT_EPOCH   = 283
BSTAR          = .10259007E-2
MEAN_MOTION_DOT = .221785E-2
MEAN_MOTION_DDOT = 0

CCSDS_OMM_VERS = 2.0
CREATION_DATE  = 
ORIGINATOR     = 

OBJECT_NAME    = STARLINK-36367
OBJECT_ID      = 2026-020N
CENTER_NAME    = EARTH
REF_FRAME      = TEME
TIME_SYSTEM    = UTC
MEAN_ELEMENT_THEORY = SGP/SGP4

EPOCH          = 2026-02-17T14:00:01.999872
MEAN_MOTION    = 15.76265469
ECCENTRICITY   = .0001958
INCLINATION    = 42.9986
RA_OF_ASC_NODE = 264.1091
ARG_OF_PERICENTER = 282.8070
MEAN_ANOMALY   = 151.3969

EPHEMERIS_TYPE = 0
CLASSIFICATION_TYPE = U
NORAD_CAT_ID   = 67629
ELEMENT_SET_NO = 999
REV_AT_EPOCH   = 415
BSTAR          = .10520895E-2
MEAN_MOTION_DOT = .173615E-2
MEAN_MOTION_DDOT = 0

CCSDS_OMM_VERS = 2.0
CREATION_DATE  = 
ORIGINATOR     = 

OBJECT_NAME    = STARLINK-36416
OBJECT_ID      = 2026-020P
CENTER_NAME    = EARTH
REF_FRAME      = TEME
TIME_SYSTEM    = UTC
MEAN_ELEMENT_THEORY = SGP/SGP4

EPOCH          = 2026-02-16T22:50:56.285376
MEAN_MOTION    = 15.76479057
ECCENTRICITY   = .00020825
INCLINATION    = 42.9962
RA_OF_ASC_NODE = 268.1640
ARG_OF_PERICENTER = 314.4775
MEAN_ANOMALY   = 45.5924

EPHEMERIS_TYPE = 0
CLASSIFICATION_TYPE = U
NORAD_CAT_ID   = 67630
ELEMENT_SET_NO = 999
REV_AT_EPOCH   = 281
BSTAR          = .22368593E-2
MEAN_MOTION_DOT = .382597E-2
MEAN_MOTION_DDOT = 0

CCSDS_OMM_VERS = 2.0
CREATION_DATE  = 
ORIGINATOR     = 

OBJECT_NAME    = STARLINK-36527
OBJECT_ID      = 2026-020Q
CENTER_NAME    = EARTH
REF_FRAME      = TEME
TIME_SYSTEM    = UTC
MEAN_ELEMENT_THEORY = SGP/SGP4

EPOCH          = 2026-02-17T14:58:20.380800
MEAN_MOTION    = 15.82282657
ECCENTRICITY   = .0002621
INCLINATION    = 42.9959
RA_OF_ASC_NODE = 263.7228
ARG_OF_PERICENTER = 267.2936
MEAN_ANOMALY   = 92.7635

EPHEMERIS_TYPE = 0
CLASSIFICATION_TYPE = U
NORAD_CAT_ID   = 67631
ELEMENT_SET_NO = 999
REV_AT_EPOCH   = 292
BSTAR          = .28006571E-2
MEAN_MOTION_DOT = .643068E-2
MEAN_MOTION_DDOT = 0

CCSDS_OMM_VERS = 2.0
CREATION_DATE  = 
ORIGINATOR     = 

OBJECT_NAME    = STARLINK-36633
OBJECT_ID      = 2026-020R
CENTER_NAME    = EARTH
REF_FRAME      = TEME
TIME_SYSTEM    = UTC
MEAN_ELEMENT_THEORY = SGP/SGP4

EPOCH          = 2026-02-17T14:57:16.734240
MEAN_MOTION    = 15.82393229
ECCENTRICITY   = .0002796
INCLINATION    = 42.9961
RA_OF_ASC_NODE = 263.7164
ARG_OF_PERICENTER = 231.4494
MEAN_ANOMALY   = 128.6127

EPHEMERIS_TYPE = 0
CLASSIFICATION_TYPE = U
NORAD_CAT_ID   = 67632
ELEMENT_SET_NO = 999
REV_AT_EPOCH   = 292
BSTAR          = .28011593E-2
MEAN_MOTION_DOT = .646788E-2
MEAN_MOTION_DDOT = 0

CCSDS_OMM_VERS = 2.0
CREATION_DATE  = 
ORIGINATOR     = 

OBJECT_NAME    = STARLINK-36637
OBJECT_ID      = 2026-020S
CENTER_NAME    = EARTH
REF_FRAME      = TEME
TIME_SYSTEM    = UTC
MEAN_ELEMENT_THEORY = SGP/SGP4

EPOCH          = 2026-02-17T14:00:10.032480
MEAN_MOTION    = 15.76542220
ECCENTRICITY   = .00017498
INCLINATION    = 42.9962
RA_OF_ASC_NODE = 264.2955
ARG_OF_PERICENTER = 243.8756
MEAN_ANOMALY   = 116.1933

EPHEMERIS_TYPE = 0
CLASSIFICATION_TYPE = U
NORAD_CAT_ID   = 67633
ELEMENT_SET_NO = 999
REV_AT_EPOCH   = 291
BSTAR          = .23583234E-2
MEAN_MOTION_DOT = .405646E-2
MEAN_MOTION_DDOT = 0

CCSDS_OMM_VERS = 2.0
CREATION_DATE  = 
ORIGINATOR     = 

OBJECT_NAME    = STARLINK-36617
OBJECT_ID      = 2026-020T
CENTER_NAME    = EARTH
REF_FRAME      = TEME
TIME_SYSTEM    = UTC
MEAN_ELEMENT_THEORY = SGP/SGP4

EPOCH          = 2026-02-17T01:17:12.806016
MEAN_MOTION    = 15.82046557
ECCENTRICITY   = .00022042
INCLINATION    = 42.9958
RA_OF_ASC_NODE = 267.1891
ARG_OF_PERICENTER = 244.0592
MEAN_ANOMALY   = 116.0052

EPHEMERIS_TYPE = 0
CLASSIFICATION_TYPE = U
NORAD_CAT_ID   = 67634
ELEMENT_SET_NO = 999
REV_AT_EPOCH   = 283
BSTAR          = .40830268E-3
MEAN_MOTION_DOT = .86432E-3
MEAN_MOTION_DDOT = 0

CCSDS_OMM_VERS = 2.0
CREATION_DATE  = 
ORIGINATOR     = 

OBJECT_NAME    = STARLINK-36627
OBJECT_ID      = 2026-020U
CENTER_NAME    = EARTH
REF_FRAME      = TEME
TIME_SYSTEM    = UTC
MEAN_ELEMENT_THEORY = SGP/SGP4

EPOCH          = 2026-02-17T15:21:56.567520
MEAN_MOTION    = 15.76588621
ECCENTRICITY   = .00027151
INCLINATION    = 42.9965
RA_OF_ASC_NODE = 263.8556
ARG_OF_PERICENTER = 238.3601
MEAN_ANOMALY   = 121.7004

EPHEMERIS_TYPE = 0
CLASSIFICATION_TYPE = U
NORAD_CAT_ID   = 67635
ELEMENT_SET_NO = 999
REV_AT_EPOCH   = 292
BSTAR          = .2655812E-2
MEAN_MOTION_DOT = .460847E-2
MEAN_MOTION_DDOT = 0

CCSDS_OMM_VERS = 2.0
CREATION_DATE  = 
ORIGINATOR     = 

OBJECT_NAME    = STARLINK-36624
OBJECT_ID      = 2026-020V
CENTER_NAME    = EARTH
REF_FRAME      = TEME
TIME_SYSTEM    = UTC
MEAN_ELEMENT_THEORY = SGP/SGP4

EPOCH          = 2026-02-16T23:43:41.904480
MEAN_MOTION    = 15.81586995
ECCENTRICITY   = .00026007
INCLINATION    = 42.9970
RA_OF_ASC_NODE = 267.5617
ARG_OF_PERICENTER = 262.6419
MEAN_ANOMALY   = 97.4157

EPHEMERIS_TYPE = 0
CLASSIFICATION_TYPE = U
NORAD_CAT_ID   = 67636
ELEMENT_SET_NO = 999
REV_AT_EPOCH   = 282
BSTAR          = -.20967199E-2
MEAN_MOTION_DOT = -.413375E-2
MEAN_MOTION_DDOT = 0

CCSDS_OMM_VERS = 2.0
CREATION_DATE  = 
ORIGINATOR     = 

OBJECT_NAME    = STARLINK-36610
OBJECT_ID      = 2026-020W
CENTER_NAME    = EARTH
REF_FRAME      = TEME
TIME_SYSTEM    = UTC
MEAN_ELEMENT_THEORY = SGP/SGP4

EPOCH          = 2026-02-17T15:25:06.028032
MEAN_MOTION    = 15.76576261
ECCENTRICITY   = .00031663
INCLINATION    = 42.9969
RA_OF_ASC_NODE = 263.8738
ARG_OF_PERICENTER = 255.1809
MEAN_ANOMALY   = 104.8710

EPHEMERIS_TYPE = 0
CLASSIFICATION_TYPE = U
NORAD_CAT_ID   = 67637
ELEMENT_SET_NO = 999
REV_AT_EPOCH   = 292
BSTAR          = .26368184E-2
MEAN_MOTION_DOT = .4571E-2
MEAN_MOTION_DDOT = 0

CCSDS_OMM_VERS = 2.0
CREATION_DATE  = 
ORIGINATOR     = 

OBJECT_NAME    = STARLINK-36599
OBJECT_ID      = 2026-020X
CENTER_NAME    = EARTH
REF_FRAME      = TEME
TIME_SYSTEM    = UTC
MEAN_ELEMENT_THEORY = SGP/SGP4

EPOCH          = 2026-02-17T01:11:14.220960
MEAN_MOTION    = 15.82100528
ECCENTRICITY   = .00020654
INCLINATION    = 42.9969
RA_OF_ASC_NODE = 267.1539
ARG_OF_PERICENTER = 245.8602
MEAN_ANOMALY   = 114.2054

EPHEMERIS_TYPE = 0
CLASSIFICATION_TYPE = U
NORAD_CAT_ID   = 67638
ELEMENT_SET_NO = 999
REV_AT_EPOCH   = 283
BSTAR          = .11571343E-2
MEAN_MOTION_DOT = .251318E-2
MEAN_MOTION_DDOT = 0

CCSDS_OMM_VERS = 2.0
CREATION_DATE  = 
ORIGINATOR     = 

OBJECT_NAME    = STARLINK-36595
OBJECT_ID      = 2026-020Y
CENTER_NAME    = EARTH
REF_FRAME      = TEME
TIME_SYSTEM    = UTC
MEAN_ELEMENT_THEORY = SGP/SGP4

EPOCH          = 2026-02-17T01:10:06.143808
MEAN_MOTION    = 15.82125720
ECCENTRICITY   = .00020213
INCLINATION    = 42.9963
RA_OF_ASC_NODE = 267.1482
ARG_OF_PERICENTER = 289.7349
MEAN_ANOMALY   = 70.3305

EPHEMERIS_TYPE = 0
CLASSIFICATION_TYPE = U
NORAD_CAT_ID   = 67639
ELEMENT_SET_NO = 999
REV_AT_EPOCH   = 283
BSTAR          = .14379622E-2
MEAN_MOTION_DOT = .315148E-2
MEAN_MOTION_DDOT = 0

